[{"OBJECT_NAME":"XINGCHI-1 02B","OBJECT_ID":"2023-187C","EPOCH":"2026-03-09T22:36:06.861312","MEAN_MOTION":14.854851,"ECCENTRICITY":0.00120604,"INCLINATION":97.9317,"RA_OF_ASC_NODE":153.3872,"ARG_OF_PERICENTER":104.6634,"MEAN_ANOMALY":255.5919,"EPHEMERIS_TYPE":0,"CLASSIFICATION_TYPE":"U","NORAD_CAT_ID":58498,"ELEMENT_SET_NO":999,"REV_AT_EPOCH":12244,"BSTAR":0.00027337967,"MEAN_MOTION_DOT":2.307e-5,"MEAN_MOTION_DDOT":0},{"OBJECT_NAME":"SL-14 R\/B","OBJECT_ID":"1981-117B","EPOCH":"2026-03-09T17:56:04.213536","MEAN_MOTION":14.87267707,"ECCENTRICITY":0.00186594,"INCLINATION":82.5251,"RA_OF_ASC_NODE":320.3846,"ARG_OF_PERICENTER":104.7501,"MEAN_ANOMALY":255.5785,"EPHEMERIS_TYPE":0,"CLASSIFICATION_TYPE":"U","NORAD_CAT_ID":12988,"ELEMENT_SET_NO":999,"REV_AT_EPOCH":37192,"BSTAR":6.5348474e-5,"MEAN_MOTION_DOT":6.15e-6,"MEAN_MOTION_DDOT":0}]
